start=new Date('2022-03-19T00:00:00.000Z').valueOf();
sats=[{"COUNTRY_CODE":"US","ARG_OF_PERICENTER":"54.5134","CLASSIFICATION_TYPE":"U","OBJECT_NAME":"STARLINK-2467","RA_OF_ASC_NODE":"189.3291","SITE":"AFETR","BSTAR":"0.00030436000000","RCS_SIZE":"LARGE","ELEMENT_SET_NO":"999","NORAD_CAT_ID":"48126","PERIOD":"95.591","INCLINATION":"53.0535","PERIAPSIS":"546.155","OBJECT_ID":"2021-027AL","TLE_LINE2":"2 48126  53.0535 189.3291 0001446  54.5134 305.5990 15.06418620 53466","MEAN_MOTION":"15.06418620","MEAN_ELEMENT_THEORY":"SGP4","REV_AT_EPOCH":"5346","OBJECT_TYPE":"PAYLOAD","FILE":"3364540","GP_ID":"199077305","SEMIMAJOR_AXIS":"6925.291","MEAN_MOTION_DOT":"0.00004257","CENTER_NAME":"EARTH","TIME_SYSTEM":"UTC","APOAPSIS":"548.158","REF_FRAME":"TEME","ECCENTRICITY":"0.00014460","EPOCH":"2022-03-18T19:33:23.498784","EPHEMERIS_TYPE":"0","LAUNCH_DATE":"2021-04-07","DECAY_DATE":null,"TLE_LINE1":"1 48126U 21027AL  22077.81485531  .00004257  00000-0  30436-3 0  9993","MEAN_ANOMALY":"305.5990","MEAN_MOTION_DDOT":"0.0000000000000"},{"RCS_SIZE":"LARGE","NORAD_CAT_ID":"48127","ELEMENT_SET_NO":"999","ARG_OF_PERICENTER":"52.6342","CLASSIFICATION_TYPE":"U","RA_OF_ASC_NODE":"209.9824","OBJECT_NAME":"STARLINK-2468","COUNTRY_CODE":"US","BSTAR":"0.00064268000000","SITE":"AFETR","OBJECT_TYPE":"PAYLOAD","FILE":"3364757","GP_ID":"199102962","REV_AT_EPOCH":"5356","MEAN_ELEMENT_THEORY":"SGP4","SEMIMAJOR_AXIS":"6925.355","PERIOD":"95.592","MEAN_MOTION":"15.06397973","INCLINATION":"53.0535","PERIAPSIS":"546.362","OBJECT_ID":"2021-027AM","TLE_LINE2":"2 48127  53.0535 209.9824 0001238  52.6342 307.4759 15.06397973 53569","APOAPSIS":"548.077","REF_FRAME":"TEME","TIME_SYSTEM":"UTC","LAUNCH_DATE":"2021-04-07","EPOCH":"2022-03-18T16:09:03.058848","ECCENTRICITY":"0.00012380","EPHEMERIS_TYPE":"0","MEAN_MOTION_DOT":"0.00009304","CENTER_NAME":"EARTH","MEAN_MOTION_DDOT":"0.0000000000000","MEAN_ANOMALY":"307.4759","TLE_LINE1":"1 48127U 21027AM  22077.67295207  .00009304  00000-0  64268-3 0  9995","DECAY_DATE":null},{"MEAN_MOTION_DDOT":"0.0000000000000","MEAN_ANOMALY":"275.2489","TLE_LINE1":"1 48128U 21027AN  22077.44626519  .00012662  00000-0  86737-3 0  9991","DECAY_DATE":null,"APOAPSIS":"548.224","REF_FRAME":"TEME","TIME_SYSTEM":"UTC","LAUNCH_DATE":"2021-04-07","ECCENTRICITY":"0.00014610","EPOCH":"2022-03-18T10:42:37.312416","EPHEMERIS_TYPE":"0","MEAN_MOTION_DOT":"0.00012662","CENTER_NAME":"EARTH","OBJECT_TYPE":"PAYLOAD","FILE":"3364342","GP_ID":"199044965","MEAN_ELEMENT_THEORY":"SGP4","REV_AT_EPOCH":"5450","SEMIMAJOR_AXIS":"6925.347","PERIOD":"95.592","MEAN_MOTION":"15.06400356","PERIAPSIS":"546.201","OBJECT_ID":"2021-027AN","INCLINATION":"53.0556","TLE_LINE2":"2 48128  53.0556 140.9987 0001461  84.8667 275.2489 15.06400356 54509","RCS_SIZE":"LARGE","ELEMENT_SET_NO":"999","NORAD_CAT_ID":"48128","ARG_OF_PERICENTER":"84.8667","CLASSIFICATION_TYPE":"U","RA_OF_ASC_NODE":"140.9987","OBJECT_NAME":"STARLINK-2469","COUNTRY_CODE":"US","BSTAR":"0.00086737000000","SITE":"AFETR"},{"REV_AT_EPOCH":"5357","MEAN_ELEMENT_THEORY":"SGP4","OBJECT_TYPE":"PAYLOAD","GP_ID":"199103951","FILE":"3364757","SEMIMAJOR_AXIS":"6925.346","PERIOD":"95.592","PERIAPSIS":"546.185","INCLINATION":"53.0537","OBJECT_ID":"2021-027AP","TLE_LINE2":"2 48129  53.0537 209.7164 0001482  63.2755 296.8385 15.06400714 53570","MEAN_MOTION":"15.06400714","RCS_SIZE":"LARGE","NORAD_CAT_ID":"48129","ELEMENT_SET_NO":"999","COUNTRY_CODE":"US","ARG_OF_PERICENTER":"63.2755","OBJECT_NAME":"STARLINK-2471","CLASSIFICATION_TYPE":"U","RA_OF_ASC_NODE":"209.7164","SITE":"AFETR","BSTAR":"0.00010411000000","MEAN_ANOMALY":"296.8385","TLE_LINE1":"1 48129U 21027AP  22077.73190874  .00001270  00000-0  10411-3 0  9993","MEAN_MOTION_DDOT":"0.0000000000000","DECAY_DATE":null,"TIME_SYSTEM":"UTC","APOAPSIS":"548.238","REF_FRAME":"TEME","ECCENTRICITY":"0.00014820","EPOCH":"2022-03-18T17:33:56.915136","EPHEMERIS_TYPE":"0","LAUNCH_DATE":"2021-04-07","MEAN_MOTION_DOT":"0.00001270","CENTER_NAME":"EARTH"},{"SEMIMAJOR_AXIS":"6925.316","REV_AT_EPOCH":"5352","MEAN_ELEMENT_THEORY":"SGP4","GP_ID":"199103212","FILE":"3364757","OBJECT_TYPE":"PAYLOAD","TLE_LINE2":"2 48130  53.0538 214.1634 0001541  64.7212 295.3937 15.06410643 53529","OBJECT_ID":"2021-027AQ","PERIAPSIS":"546.114","INCLINATION":"53.0538","MEAN_MOTION":"15.06410643","PERIOD":"95.591","ELEMENT_SET_NO":"999","NORAD_CAT_ID":"48130","RCS_SIZE":"LARGE","SITE":"AFETR","BSTAR":"0.00033881000000","COUNTRY_CODE":"US","CLASSIFICATION_TYPE":"U","RA_OF_ASC_NODE":"214.1634","OBJECT_NAME":"STARLINK-2472","ARG_OF_PERICENTER":"64.7212","TLE_LINE1":"1 48130U 21027AQ  22077.85398381  .00004770  00000-0  33881-3 0  9995","MEAN_ANOMALY":"295.3937","MEAN_MOTION_DDOT":"0.0000000000000","DECAY_DATE":null,"EPHEMERIS_TYPE":"0","EPOCH":"2022-03-18T20:29:44.201184","ECCENTRICITY":"0.00015410","LAUNCH_DATE":"2021-04-07","TIME_SYSTEM":"UTC","APOAPSIS":"548.248","REF_FRAME":"TEME","CENTER_NAME":"EARTH","MEAN_MOTION_DOT":"0.00004770"},{"TLE_LINE2":"2 48131  53.0535 189.3686 0001442  78.2222 281.8929 15.06422795 53867","PERIAPSIS":"546.145","INCLINATION":"53.0535","OBJECT_ID":"2021-027AR","MEAN_MOTION":"15.06422795","PERIOD":"95.591","SEMIMAJOR_AXIS":"6925.279","REV_AT_EPOCH":"5386","MEAN_ELEMENT_THEORY":"SGP4","FILE":"3364757","GP_ID":"199103462","OBJECT_TYPE":"PAYLOAD","SITE":"AFETR","BSTAR":"0.00103660000000","COUNTRY_CODE":"US","CLASSIFICATION_TYPE":"U","OBJECT_NAME":"STARLINK-2473","RA_OF_ASC_NODE":"189.3686","ARG_OF_PERICENTER":"78.2222","NORAD_CAT_ID":"48131","ELEMENT_SET_NO":"999","RCS_SIZE":"LARGE","DECAY_DATE":null,"TLE_LINE1":"1 48131U 21027AR  22077.80748414  .00015202  00000-0  10366-2 0  9991","MEAN_ANOMALY":"281.8929","MEAN_MOTION_DDOT":"0.0000000000000","CENTER_NAME":"EARTH","MEAN_MOTION_DOT":"0.00015202","EPHEMERIS_TYPE":"0","ECCENTRICITY":"0.00014420","EPOCH":"2022-03-18T19:22:46.629696","LAUNCH_DATE":"2021-04-07","TIME_SYSTEM":"UTC","REF_FRAME":"TEME","APOAPSIS":"548.142"},{"CENTER_NAME":"EARTH","MEAN_MOTION_DOT":"0.00003256","LAUNCH_DATE":"2021-04-07","ECCENTRICITY":"0.00014150","EPOCH":"2022-03-18T15:42:30.686976","EPHEMERIS_TYPE":"0","REF_FRAME":"TEME","APOAPSIS":"548.231","TIME_SYSTEM":"UTC","DECAY_DATE":null,"MEAN_MOTION_DDOT":"0.0000000000000","MEAN_ANOMALY":"287.6037","TLE_LINE1":"1 48132U 21027AS  22077.65452184  .00003256  00000-0  23747-3 0  9995","BSTAR":"0.00023747000000","SITE":"AFETR","ARG_OF_PERICENTER":"72.5106","RA_OF_ASC_NODE":"210.0689","CLASSIFICATION_TYPE":"U","OBJECT_NAME":"STARLINK-2474","COUNTRY_CODE":"US","NORAD_CAT_ID":"48132","ELEMENT_SET_NO":"999","RCS_SIZE":"LARGE","MEAN_MOTION":"15.06387641","PERIAPSIS":"546.271","INCLINATION":"53.0544","OBJECT_ID":"2021-027AS","TLE_LINE2":"2 48132  53.0544 210.0689 0001415  72.5106 287.6037 15.06387641 53551","PERIOD":"95.593","SEMIMAJOR_AXIS":"6925.386","OBJECT_TYPE":"PAYLOAD","GP_ID":"199103713","FILE":"3364757","MEAN_ELEMENT_THEORY":"SGP4","REV_AT_EPOCH":"5355"},{"PERIOD":"95.591","OBJECT_ID":"2021-027AT","PERIAPSIS":"546.201","INCLINATION":"53.0535","TLE_LINE2":"2 48133  53.0535 210.0838 0001413  63.0390 297.0743 15.06411220 53567","MEAN_MOTION":"15.06411220","REV_AT_EPOCH":"5356","MEAN_ELEMENT_THEORY":"SGP4","OBJECT_TYPE":"PAYLOAD","GP_ID":"199104451","FILE":"3364757","SEMIMAJOR_AXIS":"6925.314","COUNTRY_CODE":"US","ARG_OF_PERICENTER":"63.0390","RA_OF_ASC_NODE":"210.0838","CLASSIFICATION_TYPE":"U","OBJECT_NAME":"STARLINK-2475","SITE":"AFETR","BSTAR":"0.00071974000000","RCS_SIZE":"LARGE","NORAD_CAT_ID":"48133","ELEMENT_SET_NO":"999","DECAY_DATE":null,"TLE_LINE1":"1 48133U 21027AT  22077.65083380  .00010458  00000-0  71974-3 0  9991","MEAN_ANOMALY":"297.0743","MEAN_MOTION_DDOT":"0.0000000000000","MEAN_MOTION_DOT":"0.00010458","CENTER_NAME":"EARTH","TIME_SYSTEM":"UTC","REF_FRAME":"TEME","APOAPSIS":"548.158","EPOCH":"2022-03-18T15:37:12.040320","ECCENTRICITY":"0.00014130","EPHEMERIS_TYPE":"0","LAUNCH_DATE":"2021-04-07"},{"MEAN_MOTION_DOT":"0.00009119","CENTER_NAME":"EARTH","TIME_SYSTEM":"UTC","REF_FRAME":"TEME","APOAPSIS":"548.119","EPHEMERIS_TYPE":"0","EPOCH":"2022-03-18T15:15:58.211424","ECCENTRICITY":"0.00013320","LAUNCH_DATE":"2021-04-07","DECAY_DATE":null,"TLE_LINE1":"1 48134U 21027AU  22077.63609041  .00009119  00000-0  63021-3 0  9994","MEAN_ANOMALY":"287.7666","MEAN_MOTION_DDOT":"0.0000000000000","COUNTRY_CODE":"US","CLASSIFICATION_TYPE":"U","OBJECT_NAME":"STARLINK-2476","RA_OF_ASC_NODE":"210.1476","ARG_OF_PERICENTER":"72.3468","SITE":"AFETR","BSTAR":"0.00063021000000","RCS_SIZE":"LARGE","NORAD_CAT_ID":"48134","ELEMENT_SET_NO":"999","PERIOD":"95.592","TLE_LINE2":"2 48134  53.0535 210.1476 0001332  72.3468 287.7666 15.06405440 53552","INCLINATION":"53.0535","PERIAPSIS":"546.274","OBJECT_ID":"2021-027AU","MEAN_MOTION":"15.06405440","REV_AT_EPOCH":"5355","MEAN_ELEMENT_THEORY":"SGP4","FILE":"3364757","GP_ID":"199102713","OBJECT_TYPE":"PAYLOAD","SEMIMAJOR_AXIS":"6925.332"},{"MEAN_MOTION_DOT":"0.00001471","CENTER_NAME":"EARTH","TIME_SYSTEM":"UTC","APOAPSIS":"547.994","REF_FRAME":"TEME","ECCENTRICITY":"0.00011190","EPOCH":"2022-03-18T19:41:57.624576","EPHEMERIS_TYPE":"0","LAUNCH_DATE":"2021-04-07","DECAY_DATE":null,"TLE_LINE1":"1 48135U 21027AV  22077.82080584  .00001471  00000-0  11762-3 0  9999","MEAN_ANOMALY":"293.0211","MEAN_MOTION_DDOT":"0.0000000000000","COUNTRY_CODE":"US","ARG_OF_PERICENTER":"67.0896","OBJECT_NAME":"STARLINK-2478","CLASSIFICATION_TYPE":"U","RA_OF_ASC_NODE":"214.3153","SITE":"AFETR","BSTAR":"0.00011762000000","RCS_SIZE":"LARGE","ELEMENT_SET_NO":"999","NORAD_CAT_ID":"48135","PERIOD":"95.592","PERIAPSIS":"546.444","INCLINATION":"53.0532","OBJECT_ID":"2021-027AV","TLE_LINE2":"2 48135  53.0532 214.3153 0001119  67.0896 293.0211 15.06398333 53511","MEAN_MOTION":"15.06398333","MEAN_ELEMENT_THEORY":"SGP4","REV_AT_EPOCH":"5351","OBJECT_TYPE":"PAYLOAD","GP_ID":"199102963","FILE":"3364757","SEMIMAJOR_AXIS":"6925.354"}];
